[
    {
        "Altitude(m)": 553534.52475693,
        "Argument of Periapsis(deg)": 0.033114955553567506,
        "Eccentricity": 0.0,
        "Inclination(deg)": 53.0,
        "Latitude(deg)": 8.334101662047537,
        "Longitude(deg)": -57.68473080516164,
        "Mean Anomaly(deg)": 10.458064337888016,
        "RAAN(deg)": 39.950716842640084,
        "Satellite Name": "Starlink Shell 1 195",
        "Satellite Number": 195,
        "Semi-Major Axis(m)": 6931778.249405717,
        "Time(s)": 950
    },
    {
        "Altitude(m)": 553516.954833755,
        "Argument of Periapsis(deg)": 0.03346353403307874,
        "Eccentricity": 0.0,
        "Inclination(deg)": 53.0,
        "Latitude(deg)": 8.8348260468261,
        "Longitude(deg)": -57.3407393081788,
        "Mean Anomaly(deg)": 11.084895541444732,
        "RAAN(deg)": 39.95019807256261,
        "Satellite Name": "Starlink Shell 1 195",
        "Satellite Number": 195,
        "Semi-Major Axis(m)": 6931778.249405717,
        "Time(s)": 960
    },
    {
        "Altitude(m)": 553502.1155818517,
        "Argument of Periapsis(deg)": 0.03381211251258998,
        "Eccentricity": 0.0,
        "Inclination(deg)": 53.0,
        "Latitude(deg)": 9.335146472580057,
        "Longitude(deg)": -56.99570326105605,
        "Mean Anomaly(deg)": 11.711726745001439,
        "RAAN(deg)": 39.94967930248514,
        "Satellite Name": "Starlink Shell 1 195",
        "Satellite Number": 195,
        "Semi-Major Axis(m)": 6931778.249405717,
        "Time(s)": 970
    },
    {
        "Altitude(m)": 553489.990967598,
        "Argument of Periapsis(deg)": 0.034160690992101214,
        "Eccentricity": 0.0,
        "Inclination(deg)": 53.0,
        "Latitude(deg)": 9.835038019235851,
        "Longitude(deg)": -56.64956088242072,
        "Mean Anomaly(deg)": 12.338557948558142,
        "RAAN(deg)": 39.94916053240767,
        "Satellite Name": "Starlink Shell 1 195",
        "Satellite Number": 195,
        "Semi-Major Axis(m)": 6931778.249405717,
        "Time(s)": 980
    },
    {
        "Altitude(m)": 553480.5636950101,
        "Argument of Periapsis(deg)": 0.034509269471612446,
        "Eccentricity": 0.0,
        "Inclination(deg)": 53.0,
        "Latitude(deg)": 10.334475533577434,
        "Longitude(deg)": -56.30224940431646,
        "Mean Anomaly(deg)": 12.965389152114856,
        "RAAN(deg)": 39.94864176233019,
        "Satellite Name": "Starlink Shell 1 195",
        "Satellite Number": 195,
        "Semi-Major Axis(m)": 6931778.249405717,
        "Time(s)": 990
    }
]